PROGRESS-MS 32          
1 65586U 25204A   25304.16626396  .00017194  00000+0  31236-3 0  9995
2 65586  51.6343 353.2496 0004910 359.9780   0.1208 15.49645314   273
CYGNUS NG-23            
1 65616U 25208A   25304.16626396  .00017194  00000+0  31236-3 0  9993
2 65616  51.6343 353.2496 0004910 359.9780   0.1208 15.49645314   222
DRAGONFLY               
1 65729U 98067XH  25304.53323922  .00107808  00000+0  13232-2 0  9998
2 65729  51.6321 349.7034 0003312  60.6779 299.4544 15.59463814  6552
1998-067XK              
1 65731U 98067XK  25304.49223845  .00079238  00000+0  10519-2 0  9999
2 65731  51.6329 350.1810 0004790  37.8224 322.3104 15.57515864  6541
RSP-03                  
1 65732U 98067XL  25304.54506606  .00092034  00000+0  11758-2 0  9990
2 65732  51.6324 349.7830 0005529  38.8164 321.3225 15.58468460  6563
GHS-01                  
1 65733U 98067XM  25304.52542407  .00119443  00000+0  14261-2 0  9994
2 65733  51.6330 349.6530 0003796  57.6162 302.5198 15.60136598  6565
YOTSUBA-KULOVER         
1 65941U 98067XN  25304.20002539  .00061481  00000+0  96447-3 0  9992
2 65941  51.6335 352.7259 0002525 341.0736  19.0160 15.53087293  3239
BOTAN                   
1 65942U 98067XP  25303.55162490  .00085715  00000+0  13052-2 0  9999
2 65942  51.6336 355.8960 0004519 355.9022   4.1931 15.53757174  3133
E-KAGAKU-1              
1 65943U 98067XQ  25303.55613179  .00063292  00000+0  99541-3 0  9999
2 65943  51.6342 355.9257 0004269 345.4826  14.6041 15.52998589  3133
HRC MONOBLOCK CAMERA    
1 66052U 98067XR  25304.41866063  .00038592  00000+0  66758-3 0  9998
2 66052  51.6330 351.9350 0004369   9.7443 350.3630 15.50551938  2266
HTV-X1                  
1 66174U 25241A   25304.16626396  .00017194  00000+0  31236-3 0  9990
2 66174  51.6343 353.2496 0004910 359.9780   0.1208 15.49645314   772
